# From MPEC 2026-N12
223P/Skiff,e,27.0077,346.6845,37.9837,4.158332,0.1162319,0.41600752,316.4259,07/15.0/2026,2000,g 12.0,4.0
# From MPC191613
224P/LINEAR-NEAT,e,13.2955,40.0324,16.8396,3.448329,0.1539186,0.40510980,213.0521,07/15.0/2026,2000,g 15.5,4.0
# From MPC191613
226P/Pigott-LINEAR-Kowalski,e,44.0379,54.0250,341.0368,3.765755,0.1348733,0.52850502,125.6006,07/15.0/2026,2000,g 12.5,4.0
# From MPC191614
227P/Catalina-LINEAR,e,7.5062,36.7731,105.6430,3.438250,0.1545959,0.52783190,132.7132,07/15.0/2026,2000,g 16.5,2.0
# From MPC191614
228P/LINEAR,e,7.9184,30.9489,114.9679,4.159654,0.1161765,0.17785504,268.9724,07/15.0/2026,2000,g 14.5,2.0
# From MPC191614
229P/Gibbs,e,26.1344,157.7857,224.4253,3.930618,0.1264774,0.37916150,62.6761,07/15.0/2026,2000,g 13.0,4.0
# From MPC191614
230P/LINEAR,e,15.4723,106.9250,313.5905,3.455697,0.1534266,0.54508769,242.1627,07/15.0/2026,2000,g 13.0,4.0
# From MPEC 2026-N12
231P/LINEAR-NEAT,e,12.2804,132.7289,43.0886,4.073439,0.1198843,0.24010246,314.1292,07/15.0/2026,2000,g 14.5,2.0
# From MPC191614
232P/Hill,e,14.6440,55.9801,53.4123,4.467866,0.1043648,0.33621789,276.6220,07/15.0/2026,2000,g 11.5,4.0
# From MPEC 2026-L50
233P/LaSagra,e,11.2891,74.9121,26.9586,3.026882,0.1871591,0.41305303,35.1807,07/15.0/2026,2000,g 15.0,4.0
# From MPC191614
234P/LINEAR,e,11.5333,179.5471,357.5179,3.799745,0.1330676,0.25756280,83.7007,07/15.0/2026,2000,g 12.0,4.0
# From MPEC 2026-N12
235P/LINEAR,e,9.8125,200.1676,352.2157,3.446545,0.1540381,0.42610253,31.4675,07/15.0/2026,2000,g 12.0,4.0
# From MPC191614
236P/LINEAR,e,16.3142,245.3637,119.5958,3.729744,0.1368313,0.51079839,71.9257,07/15.0/2026,2000,g 14.0,4.0
# From MPC191615
237P/LINEAR,e,13.9854,245.3415,25.5789,3.521181,0.1491666,0.43083932,172.9949,07/15.0/2026,2000,g 14.5,2.0
# From MPC191615
238P/Read,e,1.2634,51.6507,324.2097,3.168803,0.1747275,0.25019825,262.4610,07/15.0/2026,2000,g 14.5,4.0
# From MPC191615
239P/LINEAR,e,11.3041,255.9013,220.4557,4.461824,0.1045768,0.63162252,286.4045,07/15.0/2026,2000,g 17.5,2.0
# From MPEC 2026-L50
240P/NEAT,e,23.5300,74.8997,352.0714,3.863291,0.1297980,0.45088700,26.8780,07/15.0/2026,2000,g 11.0,4.0
# From MPEC 2026-L50
240P-B/NEAT,e,23.5295,74.8997,352.0647,3.862852,0.1298201,0.45082070,26.8785,07/15.0/2026,2000,g 15.5,4.0
# From MPC191615
241P/LINEAR,e,21.0947,305.3597,111.6996,4.929911,0.0900421,0.60955967,163.4581,07/15.0/2026,2000,g 13.5,4.0
# From MPEC 2026-J34
242P/Spahr,e,32.4602,180.1013,245.0952,5.535373,0.0756805,0.28244092,43.0452,07/15.0/2026,2000,g  8.0,4.0
# From MPEC 2026-J11
243P/NEAT,e,7.6445,87.5735,283.7954,3.824775,0.1317635,0.35995949,18.3665,07/15.0/2026,2000,g 12.5,4.0
# From MPC191615
244P/Scotti,e,2.2569,353.9946,93.6984,4.907830,0.0906504,0.19946302,120.7608,07/15.0/2026,2000,g  9.0,4.0
# From MPEC 2026-N12
245P/WISE,e,21.1711,316.6651,316.6899,4.054803,0.1207117,0.45606585,12.7828,07/15.0/2026,2000,g 14.0,4.0
# From MPC191616
246P/NEAT,e,17.1194,73.7434,184.5639,4.344778,0.1088310,0.20821873,228.9962,07/15.0/2026,2000,g 10.5,4.0
# From MPC191616
247P/LINEAR,e,13.6600,53.9943,47.5331,3.961839,0.1249853,0.62557202,347.1287,07/15.0/2026,2000,g 16.5,2.0
# From MPEC 2026-GD5
248P/Gibbs,e,6.3525,207.7036,210.0230,5.990223,0.0672264,0.64002025,20.3785,07/15.0/2026,2000,g 14.0,4.0
# From MPC191616
249P/LINEAR,e,8.2479,237.9947,66.9896,2.776339,0.2130567,0.81836374,112.5291,07/15.0/2026,2000,g 15.5,4.0
# From MPEC 2026-KB8
250P/Larson,e,13.1514,73.3020,45.7245,3.775930,0.1343285,0.39807840,56.9902,07/15.0/2026,2000,g 14.5,4.0
# From MPC191616
251P/LINEAR,e,23.3940,219.3376,31.1474,3.510496,0.1498481,0.50423535,132.3198,07/15.0/2026,2000,g 16.5,2.0
# From MPC191616
252P/LINEAR,e,10.4203,190.9045,343.3651,3.052219,0.1848334,0.67121468,338.6023,07/15.0/2026,2000,g 17.5,4.0
# From MPC191616
253P/PANSTARRS,e,4.9563,146.7901,230.6056,3.459521,0.1531723,0.41636186,96.8065,07/15.0/2026,2000,g 14.5,4.0
# From MPC194203
254P/McNaught,e,32.5355,129.1743,219.6488,4.621273,0.0992114,0.31821983,210.1084,07/15.0/2026,2000,g 11.0,4.0
# From MPC191617
256P/LINEAR,e,27.6227,81.2950,124.0446,4.633239,0.0988273,0.41844943,120.6386,07/15.0/2026,2000,g 14.0,2.0
# From MPC191617
257P/Catalina,e,20.2113,207.7338,117.6643,3.769608,0.1346666,0.42871084,287.8828,07/15.0/2026,2000,g 11.5,4.0
# From MPC191617
258P/PANSTARRS,e,6.7509,126.2324,25.7416,4.386202,0.1072929,0.21004512,237.5749,07/15.0/2026,2000,g 13.0,4.0
# From MPEC 2026-N12
259P/Garradd,e,15.8954,51.4342,257.3717,2.730208,0.2184794,0.33881689,353.8938,07/15.0/2026,2000,g 15.5,4.0
# From MPEC 2026-N12
260P/McNaught,e,15.0394,349.2712,18.5138,3.623189,0.1429116,0.60864048,356.9976,07/15.0/2026,2000,g 13.5,4.0
# From MPC194203
261P/Larson,e,6.0734,291.0493,67.3754,3.488415,0.1512731,0.42258049,30.1899,07/15.0/2026,2000,g 14.0,4.0
# From MPC191617
264P/Larsen,e,25.5384,218.9118,341.5062,4.037301,0.1214975,0.33683644,329.4912,07/15.0/2026,2000,g 13.0,4.0
# From MPC191617
265P/LINEAR,e,14.3287,342.8655,33.6033,4.262419,0.1120005,0.64617601,222.1609,07/15.0/2026,2000,g 14.5,4.0
# From MPC191618
266P/Christensen,e,3.4285,4.9826,97.8337,3.527643,0.1487569,0.34070275,338.2921,07/15.0/2026,2000,g 12.5,4.0
# From MPEC 2026-HH0
268P/Bernardi,e,15.6612,125.6280,0.0830,4.593660,0.1001073,0.47452743,57.3989,07/15.0/2026,2000,g 14.0,4.0
# From MPC191618
269P/Jedicke,e,7.0815,241.7286,225.8343,7.056084,0.0525846,0.43367344,225.6697,07/15.0/2026,2000,g 10.0,4.0
# From MPC191618
270P/Gehrels,e,2.9244,223.0058,209.9952,6.646692,0.0575169,0.46997894,274.0338,07/15.0/2026,2000,g  8.0,4.0
# From MPC191618
271P/vanHouten-Lemmon,e,6.8626,9.2026,36.6975,7.034055,0.0528318,0.39527260,250.1747,07/15.0/2026,2000,g 11.0,4.0
# From MPC191618
272P/NEAT,e,18.0824,109.4383,27.9213,4.462285,0.1045606,0.45569913,152.4296,07/15.0/2026,2000,g 16.0,2.0
# From MPC191618
274P/Tombaugh-Tenagra,e,15.8163,81.3099,38.5429,4.378977,0.1075586,0.44029996,167.4875,07/15.0/2026,2000,g 13.0,4.0
# From MPC191618
275P/Hermann,e,21.2494,348.7085,173.8238,5.804969,0.0704700,0.71412427,352.6092,07/15.0/2026,2000,g 15.0,4.0
# From MPC194203
276P/Vorobjov,e,14.7203,210.4433,200.3274,5.393884,0.0786777,0.27750528,45.5574,07/15.0/2026,2000,g 11.5,4.0
# From MPC191619
277P/LINEAR,e,16.7911,276.2593,152.4549,3.853536,0.1302912,0.50615363,263.2827,07/15.0/2026,2000,g 14.0,4.0
# From MPC191619
278P/McNaught,e,6.6603,10.4475,243.7934,3.606345,0.1439141,0.45463907,298.4011,07/15.0/2026,2000,g 14.0,4.0
# From MPC191619
279P/LaSagra,e,5.0563,346.0914,5.5299,3.565527,0.1463924,0.40001553,173.2515,07/15.0/2026,2000,g 14.0,4.0
# From MPC191619
280P/Larsen,e,11.7749,131.3721,104.5588,4.521654,0.1025081,0.41726873,110.2420,07/15.0/2026,2000,g 12.5,4.0
# From MPC191619
281P/MOSS,e,4.7171,87.1702,27.2344,4.890198,0.0911411,0.17379729,114.4063,07/15.0/2026,2000,g 11.0,4.0
# From MPC191619
283P/Spacewatch,e,14.4718,161.1287,22.1702,4.129545,0.1174494,0.48571558,207.7490,07/15.0/2026,2000,g 16.0,2.0
# From MPC191619
284P/McNaught,e,11.8512,144.2572,202.4125,3.680245,0.1396012,0.37406436,246.9915,07/15.0/2026,2000,g 13.0,4.0
# From MPC191619
286P/Christensen,e,17.0150,283.2787,23.1757,4.035835,0.1215637,0.44367773,184.9128,07/15.0/2026,2000,g 14.0,4.0
# From MPC191620
287P/Christensen,e,16.6218,137.9504,193.7631,4.242553,0.1127880,0.26630323,123.4121,07/15.0/2026,2000,g 13.5,4.0
# From MPC133426
288P/,e,3.2379,83.1077,280.2032,3.051560,0.1848933,0.19933881,295.4871,07/15.0/2026,2000,g 16.0,2.0
# From MPC191620
289P/Blanpain,e,5.8994,68.8948,9.8879,3.043953,0.1855869,0.68630616,84.7623,07/15.0/2026,2000,g 19.0,4.0
# From MPC191620
290P/Jager,e,20.0075,302.6339,181.9373,6.211232,0.0636704,0.62807577,289.7321,07/15.0/2026,2000,g 10.5,4.0
# From MPC191620
291P/NEAT,e,6.3083,237.6730,173.5902,4.536422,0.1020079,0.43339325,119.1917,07/15.0/2026,2000,g 13.0,4.0
# From MPC191620
292P/Li,e,24.3181,90.8946,319.6698,6.094455,0.0655091,0.58955640,296.8969,07/15.0/2026,2000,g 12.5,4.0
# From MPC191620
293P/Spacewatch,e,9.0617,78.3788,41.0306,3.635940,0.1421605,0.41969181,288.6171,07/15.0/2026,2000,g 14.5,4.0
# From MPC191620
294P/LINEAR,e,17.7433,309.5985,237.5960,3.191156,0.1728948,0.60108092,58.3999,07/15.0/2026,2000,g 15.5,4.0
# From MPC191620
295P/LINEAR,e,21.0879,7.3773,73.0742,5.296944,0.0808474,0.61759450,359.3710,07/15.0/2026,2000,g 12.0,4.0
# From MPC191620
296P/Garradd,e,25.3412,263.4575,350.6478,3.461204,0.1530606,0.48702712,321.9643,07/15.0/2026,2000,g 14.0,4.0
# From MPC191620
297P/Beshore,e,11.2709,89.9318,145.4279,3.564564,0.1464517,0.27671219,290.9336,07/15.0/2026,2000,g 15.0,4.0
# From MPC191621
298P/Christensen,e,7.8734,52.7814,100.6422,3.587919,0.1450241,0.38723987,310.0257,07/15.0/2026,2000,g 15.0,4.0
# From MPC191621
299P/Catalina-PANSTARRS,e,10.4680,271.5660,323.5480,4.387236,0.1072550,0.28113129,86.4689,07/15.0/2026,2000,g 11.5,4.0
# From MPC191621
300P/Catalina,e,5.6751,95.5988,222.9103,2.695106,0.2227616,0.69296514,265.2212,07/15.0/2026,2000,g 16.0,4.0
# From MPC191621
301P/LINEAR-NEAT,e,10.3255,351.1195,193.3487,5.755787,0.0713751,0.58669029,312.0696,07/15.0/2026,2000,g 13.0,4.0
# From MPEC 2026-GD5
302P/Lemmon-PANSTARRS,e,6.0357,121.7160,208.5722,4.264628,0.1119135,0.22888149,55.1682,07/15.0/2026,2000,g 12.5,4.0
# From MPC191621
303P/NEAT,e,7.0169,347.9061,357.0498,5.036149,0.0872080,0.50988660,12.6539,07/15.0/2026,2000,g 13.5,4.0
# From MPC191621
304P/Ory,e,2.6064,58.8987,335.3346,3.149383,0.1763461,0.60082116,20.9472,07/15.0/2026,2000,g 16.5,4.0
# From MPC191621
306P/LINEAR,e,8.3054,341.2945,1.0364,3.127753,0.1781785,0.59270532,61.8712,07/15.0/2026,2000,g 19.0,4.0
# From MPC191622
308P/Lagerkvist-Carsenty,e,4.8520,63.0376,333.8060,6.604414,0.0580701,0.36339615,236.9610,07/15.0/2026,2000,g 13.0,2.0
# From MPC191622
309P/LINEAR,e,17.0128,10.1354,49.9516,4.375615,0.1076826,0.61790752,90.2657,07/15.0/2026,2000,g 15.0,4.0
# From MPC191622
310P/Hill,e,13.1188,8.8847,31.5005,4.180455,0.1153105,0.42173521,114.8854,07/15.0/2026,2000,g 13.5,4.0
# From MPC191622
